id;name;latitude_deg;longitude_deg;continent;iso_country;iso_region;municipality
3;Honiara International Airport;-9.428;160.054993;OC;SB;SB-GU;Honiara
67;Port Moresby Jacksons International Airport;-9.443380356;147.2200012;OC;PG;PG-NCD;Port Moresby
123;Keflavik International Airport;63.985001;-22.6056;EU;IS;IS-2;Reykjavík
1717;Edmonton International Airport;53.30970001;-113.5800018;NA;CA;CA-AB;Edmonton
1770;Halifax / Stanfield International Airport;44.88079834;-63.50859833;NA;CA;CA-NS;Halifax
1840;Ottawa Macdonald-Cartier International Airport;45.32249832;-75.66919708;NA;CA;CA-ON;Ottawa
1864;Quebec Jean Lesage International Airport;46.7911;-71.393303;NA;CA;CA-QC;Quebec
1928;Montreal / Pierre Elliott Trudeau International Airport;45.47060013;-73.74079895;NA;CA;CA-QC;Montréal
1941;Vancouver International Airport;49.19390106;-123.1839981;NA;CA;CA-BC;Vancouver
1946;Winnipeg / James Armstrong Richardson International Airport;49.90999985;-97.23989868;NA;CA;CA-MB;Winnipeg
1969;Abbotsford International Airport;49.025299;-122.361;NA;CA;CA-BC;Abbotsford
1973;Calgary International Airport;51.11389923;-114.0199966;NA;CA;CA-AB;Calgary
1979;Victoria International Airport;48.6469;-123.426003;NA;CA;CA-BC;Victoria
1986;St. John's International Airport;47.61859894;-52.75189972;NA;CA;CA-NL;St. John's
1990;Lester B. Pearson International Airport;43.67720032;-79.63059998;NA;CA;CA-ON;Toronto
2050;Houari Boumediene Airport;36.693886;3.214531;AF;DZ;DZ-16;Algiers
2090;Kotoka International Airport;5.6051898;-0.166786;AF;GH;GH-AA;Accra
2104;Nnamdi Azikiwe International Airport;9.006790161;7.263169765;AF;NG;NG-FC;Abuja
2118;Murtala Muhammed International Airport;6.577370167;3.321160078;AF;NG;NG-LA;Lagos
2125;Diori Hamani International Airport;13.4815;2.18361;AF;NE;NE-8;Niamey
2133;Tunis Carthage International Airport;36.851002;10.2272;AF;TN;TN-11;Tunis
2155;Brussels Airport;50.901402;4.48444;EU;BE;BE-BRU;Zaventem
301881;Berlin Brandenburg Airport;52.362247;13.500672;EU;DE;DE-BR;Berlin
2212;Frankfurt Airport;50.036521;8.561268;EU;DE;DE-HE;Frankfurt am Main
2214;Hamburg Helmut Schmidt Airport;53.630402;9.98823;EU;DE;DE-HH;Hamburg
2216;Cologne Bonn Airport;50.865898;7.14274;EU;DE;DE-NW;Köln (Cologne)
2217;Düsseldorf Airport;51.289501;6.76678;EU;DE;DE-NW;Düsseldorf
2218;Munich Airport;48.353802;11.7861;EU;DE;DE-BY;Munich
2219;Nuremberg Airport;49.498699;11.078056;EU;DE;DE-BY;Nuremberg
2220;Leipzig/Halle Airport;51.423889;12.236389;EU;DE;DE-SN;Leipzig
2222;Stuttgart Airport;48.68989944;9.221960068;EU;DE;DE-BW;Stuttgart
2224;Hannover Airport;52.46110153;9.685079575;EU;DE;DE-NI;Hannover
2301;Lennart Meri Tallinn Airport;59.41329956;24.83279991;EU;EE;EE-37;Tallinn
2307;Helsinki Vantaa Airport;60.3172;24.963301;EU;FI;FI-18;Helsinki
2385;Belfast International Airport;54.65750122;-6.215829849;EU;GB;GB-NIR;Belfast
2389;Birmingham International Airport;52.45389938;-1.748029947;EU;GB;GB-ENG;Birmingham
2398;Manchester Airport;53.349375;-2.279521;EU;GB;GB-ENG;Manchester
2419;London Luton Airport;51.87469864;-0.368333012;EU;GB;GB-ENG;London
2429;London Gatwick Airport;51.148102;-0.190278;EU;GB;GB-ENG;London
2434;London Heathrow Airport;51.4706;-0.461941;EU;GB;GB-ENG;London
2461;Glasgow International Airport;55.871899;-4.43306;EU;GB;GB-SCT;Paisley, Renfrewshire
2462;Edinburgh Airport;55.950145;-3.372288;EU;GB;GB-SCT;Edinburgh
2476;London Stansted Airport;51.88499832;0.234999999;EU;GB;GB-ENG;London
2513;Amsterdam Airport Schiphol;52.308601;4.76389;EU;NL;NL-NH;Amsterdam
2518;Eindhoven Airport;51.45009995;5.374529839;EU;NL;NL-NB;Eindhoven
2533;Dublin Airport;53.421299;-6.27007;EU;IE;IE-D;Dublin
2537;Shannon Airport;52.702;-8.92482;EU;IE;IE-CE;Shannon
2541;Billund Airport;55.74029922;9.151780128;EU;DK;DK-83;Billund
2542;Copenhagen Kastrup Airport;55.61790085;12.65600014;EU;DK;DK-84;Copenhagen
2563;Luxembourg-Findel International Airport;49.6233333;6.2044444;EU;LU;LU-L;Luxembourg
2570;Bergen Airport, Flesland;60.2934;5.21814;EU;NO;NO-46;Bergen
2578;Oslo Airport, Gardermoen;60.193901;11.1004;EU;NO;NO-30;Oslo
2599;Tromsø Airport, Langnes;69.683296;18.9189;EU;NO;NO-54;Tromsø
2601;Trondheim Airport, Værnes;63.457802;10.924;EU;NO;NO-50;Trondheim
2602;Stavanger Airport, Sola;58.876701;5.63778;EU;NO;NO-11;Stavanger
2608;Gdańsk Lech Wałęsa Airport;54.37760162;18.46619987;EU;PL;PL-PM;Gdańsk
2609;Kraków John Paul II International Airport;50.077702;19.7848;EU;PL;PL-MA;Kraków
2637;Warsaw Chopin Airport;52.16569901;20.96710014;EU;PL;PL-MZ;Warsaw
2648;Gothenburg-Landvetter Airport;57.66279984;12.27980042;EU;SE;SE-Q;Gothenburg
2701;Stockholm-Arlanda Airport;59.65190125;17.91860008;EU;SE;SE-AB;Stockholm
2758;Riga International Airport;56.923599;23.9711;EU;LV;LV-062;Riga
2766;Vilnius International Airport;54.634102;25.285801;EU;LT;LT-VL;Vilnius
2775;Cape Town International Airport;-33.96480179;18.60169983;AF;ZA;ZA-WC;Cape Town
300795;King Shaka International Airport;-29.61444444;31.11972222;AF;ZA;ZA-NL;Durban
31055;OR Tambo International Airport;-26.1392;28.246;AF;ZA;ZA-GT;Johannesburg
2864;Sir Seretse Khama International Airport;-24.555201;25.9182;AF;BW;BW-GA;Gaborone
308033;King Mswati III International Airport;-26.358611;31.716944;AF;SZ;SZ-LU;Mpaka
2878;Sir Seewoosagur Ramgoolam International Airport;-20.430201;57.683601;AF;MU;MU-GP;Plaine Magnein
2894;Kenneth Kaunda International Airport;-15.330833;28.452722;AF;ZM;ZM-09;Lusaka
2905;Roland Garros Airport;-20.8871;55.5103;AF;RE;RE-U-A;St Denis
2908;Ivato Airport;-18.7969;47.478802;AF;MG;MG-T;Antananarivo
2942;Quatro de Fevereiro International Airport;-8.85837;13.2312;AF;AO;AO-LUA;Luanda
2975;Maputo Airport;-25.920799;32.572601;AF;MZ;MZ-MPM;Maputo
2993;Seychelles International Airport;-4.67434;55.521801;AF;SC;SC-20;Mahe Island
2998;N'Djamena International Airport;12.1337;15.034;AF;TD;TD-CB;N'Djamena
3005;Robert Gabriel Mugabe International Airport;-17.931801;31.0928;AF;ZW;ZW-HA;Harare
3039;Hosea Kutako International Airport;-22.4799;17.4709;AF;NA;NA-KH;Windhoek
3040;Ndjili International Airport;-4.38575;15.4446;AF;CD;CD-KN;Kinshasa
3066;Modibo Keita International Airport;12.5335;-7.94994;AF;ML;ML-2;Bamako
3076;Banjul International Airport;13.338;-16.652201;AF;GM;GM-W;Banjul
3077;Fuerteventura Airport;28.4527;-13.8638;AF;ES;ES-CN;El Matorral
3081;Gran Canaria Airport;27.9319;-15.3866;EU;ES;ES-CN;Gran Canaria Island
3082;César Manrique-Lanzarote Airport;28.945499;-13.6052;AF;ES;ES-CN;San Bartolomé
3083;Tenerife Sur Airport;28.0445;-16.5725;EU;ES;ES-CN;Tenerife
3095;Lungi International Airport;8.61644;-13.1955;AF;SL;SL-N;Freetown (Lungi-Town)
3099;Roberts International Airport;6.23379;-10.3623;AF;LR;LR-MG;Monrovia
3113;Mohammed V International Airport;33.36750031;-7.589970112;AF;MA;MA-CAS;Casablanca
325736;Blaise Diagne International Airport;14.67;-17.073333;AF;SN;SN-DK;Dakar
323315;Nouakchott–Oumtounsy International Airport;18.31;-15.9697222;AF;MR;MR-NKC;Nouakchott
3150;Amílcar Cabral International Airport;16.7414;-22.9494;AF;CV;CV-B;Espargos
3157;Addis Ababa Bole International Airport;8.97789;38.799301;AF;ET;ET-AA;Addis Ababa
3174;Djibouti-Ambouli Airport;11.5473;43.1595;AF;DJ;DJ-DJ;Djibouti City
3183;Cairo International Airport;30.12190056;31.40559959;AF;EG;EG-C;Cairo
3186;Hurghada International Airport;27.180325;33.807292;AF;EG;EG-BA;Hurghada
3198;Sharm El Sheikh International Airport;27.977301;34.395;AS;EG;EG-JS;Sharm el-Sheikh
3247;Juba International Airport;4.87201;31.601101;AF;SS;SS-17;Juba
3206;Jomo Kenyatta International Airport;-1.319239974;36.92779922;AF;KE;KE-110;Nairobi
3213;Moi International Airport;-4.03483;39.5942;AF;KE;KE-300;Mombasa
3224;Mitiga International Airport;32.89177;13.287878;AF;LY;LY-TB;Tripoli
3237;Kigali International Airport;-1.96863;30.1395;AF;RW;RW-01;Kigali
3249;Khartoum International Airport;15.5895;32.5532;AF;SD;SD-03;Khartoum
3251;Julius Nyerere International Airport;-6.87811;39.202599;AF;TZ;TZ-02;Dar es Salaam
3260;Abeid Amani Karume International Airport;-6.22202;39.224899;AF;TZ;TZ-07;Zanzibar
3263;Entebbe International Airport;0.042386;32.443501;AF;UG;UG-C;Kampala
3384;Hartsfield Jackson Atlanta International Airport;33.6367;-84.428101;NA;US;US-GA;Atlanta
3386;Austin Bergstrom International Airport;30.197535;-97.662015;NA;US;US-TX;Austin
3420;Nashville International Airport;36.12450027;-86.67819977;NA;US;US-TN;Nashville
3422;Logan International Airport;42.3643;-71.005203;NA;US;US-MA;Boston
3431;Buffalo Niagara International Airport;42.94049835;-78.73220062;NA;US;US-NY;Buffalo
3435;Baltimore/Washington International Thurgood Marshall Airport;39.1754;-76.668297;NA;US;US-MD;Baltimore
3454;Cleveland Hopkins International Airport;41.4117012;-81.84980011;NA;US;US-OH;Cleveland
3457;Charlotte Douglas International Airport;35.2140007;-80.94309998;NA;US;US-NC;Charlotte
3458;John Glenn Columbus International Airport;39.998001;-82.891899;NA;US;US-OH;Columbus
3471;Cincinnati Northern Kentucky International Airport;39.048801;-84.667801;NA;US;US-KY;Cincinnati / Covington
3483;Ronald Reagan Washington National Airport;38.8521;-77.037697;NA;US;US-DC;Washington
3486;Denver International Airport;39.86169815;-104.6729965;NA;US;US-CO;Denver
3488;Dallas Fort Worth International Airport;32.896801;-97.038002;NA;US;US-TX;Dallas-Fort Worth
3497;Detroit Metropolitan Wayne County Airport;42.21239853;-83.35340118;NA;US;US-MI;Detroit
3521;Newark Liberty International Airport;40.692501;-74.168701;NA;US;US-NJ;Newark
3531;Fort Lauderdale Hollywood International Airport;26.072599;-80.152702;NA;US;US-FL;Fort Lauderdale
3602;Washington Dulles International Airport;38.9445;-77.455803;NA;US;US-VA;Washington, DC
3604;George Bush Intercontinental Houston Airport;29.9843998;-95.34140015;NA;US;US-TX;Houston
3610;Indianapolis International Airport;39.7173;-86.294403;NA;US;US-IN;Indianapolis
3620;Jacksonville International Airport;30.49410057;-81.68789673;NA;US;US-FL;Jacksonville
3622;John F Kennedy International Airport;40.639801;-73.7789;NA;US;US-NY;New York
3631;Harry Reid International Airport;36.080101;-115.152;NA;US;US-NV;Las Vegas
3632;Los Angeles International Airport;33.942501;-118.407997;NA;US;US-CA;Los Angeles
3643;La Guardia Airport;40.777199;-73.872597;NA;US;US-NY;New York
3668;Kansas City International Airport;39.2976;-94.713898;NA;US;US-MO;Kansas City
3670;Orlando International Airport;28.42939949;-81.30899811;NA;US;US-FL;Orlando
3673;Chicago Midway International Airport;41.785999;-87.752403;NA;US;US-IL;Chicago
3675;Memphis International Airport;35.04240036;-89.97669983;NA;US;US-TN;Memphis
3685;Miami International Airport;25.79319954;-80.29060364;NA;US;US-FL;Miami
3690;General Mitchell International Airport;42.94720078;-87.89659882;NA;US;US-WI;Milwaukee
3709;Minneapolis–Saint Paul International Airport / Wold–Chamberlain Field;44.882;-93.221802;NA;US;US-MN;Minneapolis
3711;Louis Armstrong New Orleans International Airport;29.99340057;-90.25800323;NA;US;US-LA;New Orleans
3744;Metropolitan Oakland International Airport;37.721298;-122.221001;NA;US;US-CA;Oakland
3752;Ontario International Airport;34.05599976;-117.6009979;NA;US;US-CA;Ontario
3754;Chicago O'Hare International Airport;41.9786;-87.9048;NA;US;US-IL;Chicago
3766;Palm Beach International Airport;26.68320084;-80.09559631;NA;US;US-FL;West Palm Beach
3768;Portland International Airport;45.58869934;-122.5979996;NA;US;US-OR;Portland
3771;Philadelphia International Airport;39.87189865;-75.2410965;NA;US;US-PA;Philadelphia
3772;Phoenix Sky Harbor International Airport;33.435302;-112.005905;NA;US;US-AZ;Phoenix
3778;Pittsburgh International Airport;40.49150085;-80.23290253;NA;US;US-PA;Pittsburgh
3795;Theodore Francis Green State Airport;41.725038;-71.425668;NA;US;US-RI;Providence
3796;Portland International Jetport;43.646198;-70.309303;NA;US;US-ME;Portland
3844;Raleigh Durham International Airport;35.87760162;-78.78749847;NA;US;US-NC;Raleigh/Durham
3847;Richmond International Airport;37.50519943;-77.31970215;NA;US;US-VA;Richmond
3853;Reno Tahoe International Airport;39.49909973;-119.7679977;NA;US;US-NV;Reno
3858;Southwest Florida International Airport;26.53619957;-81.75520325;NA;US;US-FL;Fort Myers
3862;San Diego International Airport;32.73360062;-117.1900024;NA;US;US-CA;San Diego
3863;San Antonio International Airport;29.533701;-98.469803;NA;US;US-TX;San Antonio
3864;Savannah Hilton Head International Airport;32.12760162;-81.20210266;NA;US;US-GA;Savannah
3873;Louisville Muhammad Ali International Airport;38.1744;-85.736;NA;US;US-KY;Louisville
3875;Seattle–Tacoma International Airport;47.449162;-122.311134;NA;US;US-WA;Seattle
3876;Orlando Sanford International Airport;28.77759933;-81.23750305;NA;US;US-FL;Orlando
3878;San Francisco International Airport;37.61899948;-122.375;NA;US;US-CA;San Francisco
3883;Norman Y. Mineta San Jose International Airport;37.362452;-121.929188;NA;US;US-CA;San Jose
3887;Salt Lake City International Airport;40.785749;-111.979746;NA;US;US-UT;Salt Lake City
3892;Sacramento International Airport;38.69540024;-121.5910034;NA;US;US-CA;Sacramento
3894;John Wayne Airport-Orange County Airport;33.675701;-117.867996;NA;US;US-CA;Santa Ana
3905;St Louis Lambert International Airport;38.748697;-90.370003;NA;US;US-MO;St Louis
3913;Syracuse Hancock International Airport;43.11119843;-76.10630035;NA;US;US-NY;Syracuse
3926;Tampa International Airport;27.97550011;-82.53320313;NA;US;US-FL;Tampa
3930;Tulsa International Airport;36.19839859;-95.88809967;NA;US;US-OK;Tulsa
3972;Tirana International Airport Mother Teresa;41.41469955;19.72060013;EU;AL;AL-11;Tirana
3974;Burgas Airport;42.56959915;27.51519966;EU;BG;BG-02;Burgas
3977;Sofia Airport;42.69669342;23.41143608;EU;BG;BG-23;Sofia
3979;Varna Airport;43.232101;27.8251;EU;BG;BG-03;Varna
3980;Larnaca International Airport;34.875099;33.624901;AS;CY;CY-04;Larnaca
3993;Zagreb Airport;45.74290085;16.06879997;EU;HR;HR-21;Zagreb
3997;Alicante-Elche Miguel Hernández Airport;38.2822;-0.558156;EU;ES;ES-V;Alicante
4004;Josep Tarradellas Barcelona-El Prat Airport;41.2971;2.07846;EU;ES;ES-CT;Barcelona
4013;Ibiza Airport;38.872898;1.37312;EU;ES;ES-PM;Ibiza (Eivissa)
4019;Adolfo Suárez Madrid–Barajas Airport;40.471926;-3.56264;EU;ES;ES-M;Madrid
4020;Málaga-Costa del Sol Airport;36.6749;-4.49911;EU;ES;ES-AN;Málaga
4035;Palma de Mallorca Airport;39.551701;2.73881;EU;ES;ES-PM;Palma de Mallorca
4038;Santiago-Rosalía de Castro Airport;42.896301;-8.41514;EU;ES;ES-GA;Santiago de Compostela
4060;Bordeaux-Mérignac Airport;44.8283;-0.715556;EU;FR;FR-NAQ;Bordeaux/Mérignac
4070;Toulouse-Blagnac Airport;43.629101;1.36382;EU;FR;FR-OCC;Toulouse/Blagnac
4137;Lyon Saint-Exupéry Airport;45.725556;5.081111;EU;FR;FR-ARA;Lyon
4155;Marseille Provence Airport;43.43927192;5.221424103;EU;FR;FR-PAC;Marseille
4156;Nice-Côte d'Azur Airport;43.65840149;7.215869904;EU;FR;FR-PAC;Nice
4185;Charles de Gaulle International Airport;49.012798;2.55;EU;FR;FR-IDF;Paris
4189;Paris-Orly Airport;48.7233333;2.3794444;EU;FR;FR-IDF;Paris
4226;EuroAirport Basel-Mulhouse-Freiburg Airport;47.59;7.529167;EU;FR;FR-GES;Bâle/Mulhouse
4251;Athens Eleftherios Venizelos International Airport;37.936401;23.9445;EU;GR;GR-I;Athens
4258;Heraklion International Nikos Kazantzakis Airport;35.33969879;25.18029976;EU;GR;GR-91;Heraklion
4293;Thessaloniki Macedonia International Airport;40.5196991;22.97089958;EU;GR;GR-54;Thessaloniki
4296;Budapest Liszt Ferenc International Airport;47.42976;19.261093;EU;HU;HU-PE;Budapest
4310;Bari Karol Wojtyła Airport;41.138901;16.760599;EU;IT;IT-75;Bari
4315;Brindisi Airport;40.6576;17.947001;EU;IT;IT-75;Brindisi
4318;Catania-Fontanarossa Airport;37.466801;15.0664;EU;IT;IT-82;Catania
4321;Falcone–Borsellino Airport;38.175999;13.091;EU;IT;IT-82;Palermo
4332;Cagliari Elmas Airport;39.251499;9.05428;EU;IT;IT-88;Cagliari
4340;Malpensa International Airport;45.6306;8.72811;EU;IT;IT-25;Milan
4341;Milan Bergamo Airport;45.673901;9.70417;EU;IT;IT-25;Milan
4342;Turin Airport;45.200802;7.64963;EU;IT;IT-21;Torino
4354;Bologna Guglielmo Marconi Airport;44.5354;11.2887;EU;IT;IT-45;Bologna
4366;Verona-Villafranca Valerio Catullo Airport;45.394955;10.887303;EU;IT;IT-34;Villafranca di Verona
4368;Venice Marco Polo Airport;45.505299;12.3519;EU;IT;IT-34;Venice
4372;Rome–Fiumicino Leonardo da Vinci International Airport;41.804532;12.251998;EU;IT;IT-62;Rome
4378;Naples International Airport;40.886002;14.2908;EU;IT;IT-72;Nápoli
4379;Pisa International Airport;43.683899;10.3927;EU;IT;IT-52;Pisa
4386;Ljubljana Jože Pučnik Airport;46.223701;14.4576;EU;SI;SI-061;Ljubljana
4408;Václav Havel Airport Prague;50.1008;14.26;EU;CZ;CZ-PR;Prague
4411;Ben Gurion International Airport;32.01139832;34.88669968;AS;IL;IL-M;Tel Aviv
330388;Ramon International Airport;29.727009;35.014116;AS;IL;IL-D;Eilat
4427;Malta International Airport;35.857498;14.4775;EU;MT;MT-25;Valletta
4434;Vienna International Airport;48.110298;16.5697;EU;AT;AT-9;Vienna
4448;Faro Airport;37.01440048;-7.965909958;EU;PT;PT-08;Faro
4456;João Paulo II Airport;37.74119949;-25.69790077;EU;PT;PT-20;Ponta Delgada
4459;Francisco de Sá Carneiro Airport;41.24810028;-8.681389809;EU;PT;PT-13;Porto
4461;Humberto Delgado Airport (Lisbon Portela Airport);38.7813;-9.13592;EU;PT;PT-11;Lisbon
4482;Henri Coandă International Airport;44.571111;26.085;EU;RO;RO-IF;Bucharest
4490;Geneva Cointrin International Airport;46.23809814;6.108950138;EU;CH;CH-GE;Geneva
4505;Zürich Airport;47.458056;8.548056;EU;CH;CH-ZH;Zurich
4509;Esenboğa International Airport;40.12810135;32.99509811;AS;TR;TR-06;Ankara
4515;Antalya International Airport;36.898701;30.800501;AS;TR;TR-07;Antalya
4528;İstanbul Atatürk Airport;40.971913;28.823714;EU;TR;TR-34;Bakırköy, Istanbul
4533;Adnan Menderes International Airport;38.2924;27.157;AS;TR;TR-35;İzmir
4542;Dalaman International Airport;36.71310043;28.79249954;AS;TR;TR-48;Dalaman
4567;Milas Bodrum International Airport;37.25059891;27.66430092;AS;TR;TR-48;Bodrum
4569;Istanbul Sabiha Gökçen International Airport;40.898602;29.3092;AS;TR;TR-34;Pendik, Istanbul
317457;İstanbul Airport;41.261297;28.741951;EU;TR;TR-34;Arnavutköy, Istanbul
4573;Skopje International Airport;41.961601;21.621401;EU;MK;MK-004;Skopje
4610;Belgrade Nikola Tesla Airport;44.818401;20.309099;EU;RS;RS-00;Belgrade
4613;Podgorica Airport / Podgorica Golubovci Airbase;42.359402;19.2519;EU;ME;ME-16;Podgorica
4617;M. R. Štefánik Airport;48.17020035;17.21269989;EU;SK;SK-BL;Bratislava
4628;Providenciales International Airport;21.773697;-72.268321;NA;TC;TC-PR;Providenciales
4636;Punta Cana International Airport;18.56739998;-68.36340332;NA;DO;DO-11;Punta Cana
4638;Las Américas International Airport;18.42970085;-69.66889954;NA;DO;DO-01;Santo Domingo
4644;La Aurora Airport;14.5833;-90.527496;NA;GT;GT-GU;Guatemala City
4680;Norman Manley International Airport;17.93569946;-76.78749847;NA;JM;JM-01;Kingston
4688;General Juan N Alvarez International Airport;16.757099;-99.753998;NA;MX;MX-GRO;Acapulco
4710;Don Miguel Hidalgo Y Costilla International Airport;20.52179909;-103.310997;NA;MX;MX-JAL;Guadalajara
4713;General Ignacio P. Garcia International Airport;29.09589958;-111.0479965;NA;MX;MX-SON;Hermosillo
4731;Licenciado Benito Juarez International Airport;19.4363;-99.072098;NA;MX;MX-DIF;Mexico City
4733;General Rafael Buelna International Airport;23.1614;-106.265999;NA;MX;MX-SIN;Mazatlán
4745;President Gustavo Díaz Ordaz International Airport;20.680099;-105.253998;NA;MX;MX-JAL;Puerto Vallarta
4750;Los Cabos International Airport;23.1518;-109.721001;NA;MX;MX-BCS;San José del Cabo
4757;General Abelardo L. Rodríguez International Airport;32.54109955;-116.9700012;NA;MX;MX-BCN;Tijuana
4762;Cancún International Airport;21.03650093;-86.87709808;NA;MX;MX-ROO;Cancún
4793;Tocumen International Airport;9.071359634;-79.38349915;NA;PA;PA-8;Tocumen
4806;Guanacaste Airport;10.5933;-85.544403;NA;CR;CR-G;Liberia
4820;Monseñor Óscar Arnulfo Romero International Airport;13.4409;-89.055702;NA;SV;SV-PA;San Salvador (San Luis Talpa)
4825;Toussaint Louverture International Airport;18.58;-72.292503;NA;HT;HT-OU;Port-au-Prince
4839;José Martí International Airport;22.98920059;-82.40910339;NA;CU;CU-03;Havana
4859;Juan Gualberto Gomez International Airport;23.03440094;-81.43530273;NA;CU;CU-04;Varadero
4862;Owen Roberts International Airport;19.2928009;-81.35769653;NA;KY;KY-U-A;Georgetown
4951;Lynden Pindling International Airport;25.039;-77.466202;NA;BS;BS-NP;Nassau
4956;Philip S. W. Goldson International Airport;17.539951;-88.303556;NA;BZ;BZ-BZ;Belize City
4979;Faa'a International Airport;-17.553699;-149.606995;OC;PF;PF-U-A;Papeete
5011;Bauerfield International Airport;-17.699301;168.320007;OC;VU;VU-SEE;Port Vila
5017;Nouméa Magenta Airport;-22.258301;166.473007;OC;NC;NC-U-A;Nouméa
5023;Auckland International Airport;-37.01199;174.786331;OC;NZ;NZ-AUK;Auckland
5026;Christchurch International Airport;-43.48939896;172.5319977;OC;NZ;NZ-CAN;Christchurch
5063;Wellington International Airport;-41.32720184;174.8049927;OC;NZ;NZ-WGN;Wellington
5079;Bahrain International Airport;26.267295;50.63764;AS;BH;BH-15;Manama
5087;King Fahd International Airport;26.47120094;49.79790115;AS;SA;SA-04;Ad Dammam
5097;King Abdulaziz International Airport;21.6796;39.156502;AS;SA;SA-02;Jeddah
5101;Prince Mohammad Bin Abdulaziz Airport;24.5534;39.705101;AS;SA;SA-03;Medina
5112;King Khaled International Airport;24.95759964;46.69879913;AS;SA;SA-01;Riyadh
5166;Imam Khomeini International Airport;35.41609955;51.15219879;AS;IR;IR-23;Tehran
5168;Mehrabad International Airport;35.68920135;51.31340027;AS;IR;IR-23;Tehran
5183;Mashhad International Airport;36.23519897;59.64099884;AS;IR;IR-09;Mashhad
5197;Shiraz Shahid Dastghaib International Airport;29.5392;52.589802;AS;IR;IR-07;Shiraz
5212;Queen Alia International Airport;31.72260094;35.99319839;AS;JO;JO-AM;Amman
5220;Kuwait International Airport;29.22660065;47.96889877;AS;KW;KW-FA;Kuwait City
5222;Beirut Rafic Hariri International Airport;33.82089996;35.48839951;AS;LB;LB-JL;Beirut
299738;Duqm International Airport;19.501944;57.634167;AS;OM;OM-WU;Duqm
5226;Abu Dhabi International Airport;24.443764;54.651718;AS;AE;AE-AZ;Abu Dhabi
5235;Dubai International Airport;25.25279999;55.36439896;AS;AE;AE-DU;Dubai
300320;Al Maktoum International Airport;24.896356;55.161389;AS;AE;AE-DU;Jebel Ali
5239;Sharjah International Airport;25.32859993;55.51720047;AS;AE;AE-SH;Sharjah
5242;Muscat International Airport;23.59329987;58.28440094;AS;OM;OM-MA;Muscat
333692;Islamabad International Airport;33.549;72.82566;AS;PK;PK-PB;Islamabad
5255;Jinnah International Airport;24.9065;67.160797;AS;PK;PK-SD;Karachi
5257;Allama Iqbal International Airport;31.521601;74.403603;AS;PK;PK-PB;Lahore
5289;Baghdad International Airport / New Al Muthana Air Base;33.262501;44.2346;AS;IQ;IQ-BG;Baghdad
5303;Damascus International Airport;33.41149902;36.5155983;AS;SY;SY-DI;Damascus
44686;Hamad International Airport;25.273056;51.608056;AS;QA;QA-DA;Doha
5360;Fairbanks International Airport;64.81510162;-147.8560028;NA;US;US-AK;Fairbanks
5388;Ted Stevens Anchorage International Airport;61.1744;-149.996002;NA;US;US-AK;Anchorage
5433;Antonio B. Won Pat International Airport;13.4834;144.796005;OC;GU;GU-U-A;Hagåtña
5453;Daniel K Inouye International Airport;21.32062;-157.924228;OC;US;US-HI;Honolulu
5516;Kaohsiung International Airport;22.577101;120.349998;AS;TW;TW-KHH;Kaohsiung (Xiaogang)
5528;Taiwan Taoyuan International Airport;25.0777;121.233002;AS;TW;TW-TAO;Taoyuan (Dayuan)
5531;Narita International Airport;35.764702;140.386002;AS;JP;JP-12;Tokyo
5536;Kansai International Airport;34.427299;135.244003;AS;JP;JP-27;Osaka
5544;New Chitose Airport;42.7752;141.692001;AS;JP;JP-01;Sapporo
5564;Fukuoka Airport;33.58589935;130.451004;AS;JP;JP-40;Fukuoka
5566;Kagoshima Airport;31.80340004;130.7189941;AS;JP;JP-46;Kagoshima
5576;Chubu Centrair International Airport;34.85839844;136.8049927;AS;JP;JP-23;Tokoname
5598;Osaka International Airport;34.78549957;135.4380035;AS;JP;JP-27;Osaka
5615;Sendai Airport;38.139702;140.917007;AS;JP;JP-04;Natori
5627;Tokyo Haneda International Airport;35.552299;139.779999;AS;JP;JP-13;Tokyo
302303;Muan International Airport;34.991406;126.382814;AS;KR;KR-46;Piseo-ri (Muan)
5639;Jeju International Airport;33.51129913;126.4929962;AS;KR;KR-49;Jeju City
5642;Gimhae International Airport;35.179501;128.938004;AS;KR;KR-26;Busan
5653;Incheon International Airport;37.46910095;126.4509964;AS;KR;KR-28;Seoul
5656;Gimpo International Airport;37.5583;126.791;AS;KR;KR-11;Seoul
5671;Naha Airport / JASDF Naha Air Base;26.195801;127.646004;AS;JP;JP-47;Naha
5689;Ninoy Aquino International Airport;14.5086;121.019997;AS;PH;PH-00;Manila
5697;Francisco Bangoy International Airport;7.12552;125.646004;AS;PH;PH-DAS;Davao
5742;Mactan Cebu International Airport;10.30749989;123.9789963;AS;PH;PH-CEB;Lapu-Lapu City
5771;Jorge Newbery Airpark;-34.5592;-58.4156;SA;AR;AR-C;Buenos Aires
5781;Ministro Pistarini International Airport;-34.8222;-58.5358;SA;AR;AR-B;Buenos Aires (Ezeiza)
5867;Val de Cans/Júlio Cezar Ribeiro International Airport;-1.379279;-48.476207;SA;BR;BR-PA;Belém
5872;Presidente Juscelino Kubitschek International Airport;-15.869167;-47.920834;SA;BR;BR-DF;Brasília
5882;Tancredo Neves International Airport;-19.63571;-43.966928;SA;BR;BR-MG;Belo Horizonte
5897;Eduardo Gomes International Airport;-3.03861;-60.049702;SA;BR;BR-AM;Manaus
5901;Hercílio Luz International Airport;-27.670279;-48.552502;SA;BR;BR-SC;Florianópolis
5906;Rio Galeão – Tom Jobim International Airport;-22.809999;-43.250557;SA;BR;BR-RJ;Rio De Janeiro
5910;Guarulhos - Governador André Franco Montoro International Airport;-23.431944;-46.467778;SA;BR;BR-SP;São Paulo
5977;Deputado Luiz Eduardo Magalhães International Airport;-12.908611;-38.322498;SA;BR;BR-BA;Salvador
6015;Comodoro Arturo Merino Benítez International Airport;-33.39300156;-70.78579712;SA;CL;CL-RM;Santiago
6056;José Joaquín de Olmedo International Airport;-2.15742;-79.883598;SA;EC;EC-G;Guayaquil
308273;Mariscal Sucre International Airport;-0.129166667;-78.3575;SA;EC;EC-P;Quito
6104;El Dorado International Airport;4.70159;-74.1469;SA;CO;CO-CUN;Bogota
6193;Viru Viru International Airport;-17.6448;-63.135399;SA;BO;BO-S;Santa Cruz
6195;Johan Adolf Pengel International Airport;5.45283;-55.187801;SA;SR;SR-PR;Zandery
6198;Cayenne – Félix Eboué Airport;4.819964;-52.361326;SA;GF;GF-CY;Matoury
6217;Jorge Chávez International Airport;-12.0219;-77.114305;SA;PE;PE-LIM;Lima
6243;Alejandro Velasco Astete International Airport;-13.53569984;-71.938797;SA;PE;PE-CUS;Cusco
6247;Carrasco International /General C L Berisso Airport;-34.838402;-56.0308;SA;UY;UY-CA;Montevideo
6255;General José Antonio Anzoategui International Airport;10.111111;-64.692222;SA;VE;VE-B;Barcelona
6300;Simón Bolívar International Airport;10.601194;-66.991222;SA;VE;VE-X;Caracas
342096;Qingdao Jiaodong International Airport;36.361953;120.088171;AS;CN;CN-37;Jiaozhou, Qingdao
6363;Martinique Aimé Césaire International Airport;14.591;-61.003201;NA;MQ;MQ-U-A;Fort-de-France
6366;Pointe-à-Pitre Le Raizet International  Airport;16.265301;-61.531799;NA;GP;GP-U-A;Pointe-à-Pitre
6384;Luis Munoz Marin International Airport;18.43939972;-66.00180054;NA;PR;PR-U-A;San Juan
6389;Hewanorra International Airport;13.7332;-60.952599;NA;LC;LC-11;Vieux Fort
6402;Queen Beatrix International Airport;12.5014;-70.015198;NA;AW;AW-U-A;Oranjestad
6403;Flamingo International Airport;12.131;-68.268501;NA;BQ;BQ-U-A;Kralendijk, Bonaire
6404;Hato International Airport;12.1889;-68.959801;NA;CW;CW-U-A;Willemstad
6406;Princess Juliana International Airport;18.041;-63.108898;NA;SX;SX-U-A;Saint Martin
6421;Almaty International Airport;43.3521;77.040497;AS;KZ;KZ-ALM;Almaty
6423;Nursultan Nazarbayev International Airport;51.022202;71.466904;AS;KZ;KZ-AKM;Nur-Sultan
6426;Manas International Airport;43.06129837;74.4776001;AS;KG;KG-C;Bishkek
337747;Hazrat Sultan International Airport;43.313126;68.549881;AS;KZ;KZ-YUZ;
6440;Heydar Aliyev International Airport;40.46749878;50.04669952;AS;AZ;AZ-BA;Baku
6446;Zvartnots International Airport;40.14730072;44.39590073;AS;AM;AM-ER;Yerevan
6453;Tbilisi International Airport;41.6692009;44.95470047;AS;GE;GE-TB;Tbilisi
6462;Vladivostok International Airport;43.396256;132.148155;EU;RU;RU-PRI;Artyom
6467;Boryspil International Airport;50.345001;30.894699;EU;UA;UA-32;Kiev
6481;Lviv International Airport;49.8125;23.9561;EU;UA;UA-46;Lviv
6489;Pulkovo Airport;59.8003006;30.26250076;EU;RU;RU-SPE;St. Petersburg
6501;Minsk National Airport;53.888071;28.039964;EU;BY;BY-MI;Minsk
6506;Krasnoyarsk International Airport;56.173077;92.492437;EU;RU;RU-KYA;Krasnoyarsk
6507;Novosibirsk Tolmachevo Airport;55.019756;82.618675;EU;RU;RU-NVS;Novosibirsk
326363;Platov International Airport;47.493888;39.924722;EU;RU;RU-ROS;Rostov-on-Don
6519;Sochi International Airport;43.449902;39.9566;EU;RU;RU-KDA;Sochi
26378;Koltsovo Airport;56.74309921;60.80270004;AS;RU;RU-SVE;Yekaterinburg
26380;Ashgabat International Airport;37.986801;58.361;AS;TM;TM-S;Ashgabat
26392;Tashkent International Airport;41.25790024;69.28119659;AS;UZ;UZ-TO;Tashkent
42967;Zhukovsky International Airport;55.553299;38.150002;EU;RU;RU-MOS;Moscow
26394;Domodedovo International Airport;55.40879822;37.90629959;EU;RU;RU-MOS;Moscow
26396;Sheremetyevo International Airport;55.972599;37.4146;EU;RU;RU-MOS;Moscow
26401;Vnukovo International Airport;55.59149933;37.26150131;EU;RU;RU-MOS;Moscow
26404;Kazan International Airport;55.60620117;49.27870178;EU;RU;RU-TA;Kazan
339001;Gagarin International Airport;51.712778;46.171111;EU;RU;RU-SAR;Saratov
26411;Ufa International Airport;54.55749893;55.87440109;EU;RU;RU-BA;Ufa
26412;Kurumoch International Airport;53.50490189;50.16429901;EU;RU;RU-SAM;Samara
26434;Chhatrapati Shivaji International Airport;19.08869934;72.86789703;AS;IN;IN-MM;Mumbai
26444;Dabolim Airport;15.38080025;73.83139801;AS;IN;IN-GA;Vasco da Gama
26463;Bandaranaike International Colombo Airport;7.180759907;79.88410187;AS;LK;LK-1;Colombo
309579;Mattala Rajapaksa International Airport;6.284467;81.124128;AS;LK;LK-3;
26475;Phnom Penh International Airport;11.5466;104.844002;AS;KH;KH-12;Phnom Penh (Pou Senchey)
26476;Siem Reap International Airport;13.41155;103.813044;AS;KH;KH-17;Siem Reap
26496;Netaji Subhash Chandra Bose International Airport;22.65469933;88.44670105;AS;IN;IN-WB;Kolkata
26534;Hazrat Shahjalal International Airport;23.843347;90.397783;AS;BD;BD-3;Dhaka
26535;Hong Kong International Airport;22.308901;113.915001;AS;HK;HK-U-A;Hong Kong
26555;Indira Gandhi International Airport;28.55563;77.09519;AS;IN;IN-DL;New Delhi
26589;Macau International Airport;22.149599;113.592003;AS;MO;MO-U-A;Freguesia de Nossa Senhora do Carmo (Taipa)
26596;Tribhuvan International Airport;27.6966;85.3591;AS;NP;NP-BA;Kathmandu
35145;Kempegowda International Airport;13.1979;77.706299;AS;IN;IN-KA;Bangalore
26609;Cochin International Airport;10.152;76.401901;AS;IN;IN-KL;Kochi
35141;Rajiv Gandhi International Airport;17.231318;78.429855;AS;IN;IN-TG;Hyderabad
26618;Chennai International Airport;12.990005;80.169296;AS;IN;IN-TN;Chennai
26629;Trivandrum International Airport;8.48211956;76.92009735;AS;IN;IN-KL;Thiruvananthapuram
26636;Malé International Airport;4.191830158;73.52909851;AS;MV;MV-MLE;Malé
26638;Don Mueang International Airport;13.91259956;100.6070023;AS;TH;TH-10;Bangkok
28118;Suvarnabhumi Airport;13.68109989;100.7470016;AS;TH;TH-10;Bangkok
26647;Chiang Mai International Airport;18.76679993;98.96260071;AS;TH;TH-50;Chiang Mai
26674;Phuket International Airport;8.1132;98.316902;AS;TH;TH-83;Phuket
26700;Noi Bai International Airport;21.221201;105.806999;AS;VN;VN-RRD;Hanoi (Soc Son)
26708;Tan Son Nhat International Airport;10.8188;106.652;AS;VN;VN-SE;Ho Chi Minh City
26727;Mandalay International Airport;21.70219994;95.97789764;AS;MM;MM-04;Mandalay
26744;Yangon International Airport;16.90730095;96.1332016;AS;MM;MM-06;Yangon
26745;Hasanuddin International Airport;-5.06163;119.554001;AS;ID;ID-SN;Ujung Pandang
26751;Ngurah Rai (Bali) International Airport;-8.748169899;115.1669998;AS;ID;ID-BA;Denpasar-Bali Island
26755;Sentani International Airport;-2.57695;140.516006;AS;ID;ID-PA;Jayapura-Papua Island
26789;Juanda International Airport;-7.379829884;112.7870026;AS;ID;ID-JI;Surabaya
26819;Brunei International Airport;4.9442;114.928001;AS;BN;BN-BM;Bandar Seri Begawan
26835;Soekarno-Hatta International Airport;-6.12556982;106.6559982;AS;ID;ID-BT;Jakarta
26874;Kuala Lumpur International Airport;2.745579958;101.7099991;AS;MY;MY-14;Kuala Lumpur
26887;Singapore Changi Airport;1.35019;103.994003;AS;SG;SG-04;Singapore
26901;Brisbane International Airport;-27.38419914;153.1170044;OC;AU;AU-QLD;Brisbane
27066;Melbourne International Airport;-37.673302;144.843002;OC;AU;AU-VIC;Melbourne
332096;Yantai Penglai International Airport;37.659724;120.978124;AS;CN;CN-37;Yantai
27096;Adelaide International Airport;-34.947512;138.533393;OC;AU;AU-SA;Adelaide
27119;Perth International Airport;-31.94029999;115.9670029;OC;AU;AU-WA;Perth
27145;Sydney Kingsford Smith International Airport;-33.94609833;151.177002;OC;AU;AU-NSW;Sydney
27188;Beijing Capital International Airport;40.08010101;116.5849991;AS;CN;CN-11;Beijing
330820;Beijing Daxing International Airport;39.509945;116.41092;AS;CN;CN-11;Beijing
27189;Hohhot Baita International Airport;40.849658;111.824598;AS;CN;CN-15;Hohhot
27192;Tianjin Binhai International Airport;39.12440109;117.3460007;AS;CN;CN-12;Tianjin
27193;Taiyuan Wusu Airport;37.746899;112.627998;AS;CN;CN-14;Taiyuan
27194;Guangzhou Baiyun International Airport;23.392401;113.299004;AS;CN;CN-44;Guangzhou (Huadu)
27195;Changsha Huanghua International Airport;28.18919945;113.2200012;AS;CN;CN-43;Changsha
27196;Guilin Liangjiang International Airport;25.219828;110.039553;AS;CN;CN-45;Guilin (Lingui)
27197;Nanning Wuxu Airport;22.608299;108.171997;AS;CN;CN-45;Nanning (Jiangnan)
27198;Shenzhen Bao'an International Airport;22.639299;113.810997;AS;CN;CN-44;Shenzhen (Bao'an)
27199;Zhengzhou Xinzheng International Airport;34.526497;113.849165;AS;CN;CN-41;Zhengzhou
27200;Wuhan Tianhe International Airport;30.774798;114.213723;AS;CN;CN-42;Wuhan
27201;Haikou Meilan International Airport;19.9349;110.459;AS;CN;CN-46;Haikou (Meilan)
27202;Sanya Phoenix International Airport;18.3029;109.412003;AS;CN;CN-46;Sanya (Tianya)
27204;Lanzhou Zhongchuan International Airport;36.515202;103.620003;AS;CN;CN-62;Lanzhou (Yongdeng)
27205;Xi'an Xianyang International Airport;34.447102;108.751999;AS;CN;CN-61;Xianyang (Weicheng)
335326;Ulaanbaatar Chinggis Khaan International Airport;47.646916;106.819833;AS;MN;MN-047;Ulaanbaatar (Sergelen)
27214;Kunming Changshui International Airport;25.110313;102.936743;AS;CN;CN-53;Kunming
27215;Xiamen Gaoqi International Airport;24.54400063;118.1279984;AS;CN;CN-35;Xiamen
27216;Nanchang Changbei International Airport;28.864815;115.90271;AS;CN;CN-36;Nanchang
27218;Hangzhou Xiaoshan International Airport;30.23609;120.428865;AS;CN;CN-33;Hangzhou
27219;Jinan Yaoqiang International Airport;36.857201;117.216003;AS;CN;CN-37;Jinan
27220;Ningbo Lishe International Airport;29.82670021;121.461998;AS;CN;CN-33;Ningbo
27221;Nanjing Lukou International Airport;31.735032;118.865949;AS;CN;CN-32;Nanjing
27223;Shanghai Pudong International Airport;31.1434;121.805;AS;CN;CN-31;Shanghai (Pudong)
27225;Shanghai Hongqiao International Airport;31.198104;121.33426;AS;CN;CN-31;Shanghai (Minhang)
32672;Wenzhou Longwan International Airport;27.912201;120.851997;AS;CN;CN-33;Wenzhou
27228;Chongqing Jiangbei International Airport;29.712254;106.651895;AS;CN;CN-50;Chongqing
27229;Guiyang Longdongbao International Airport;26.541466;106.803331;AS;CN;CN-52;Guiyang (Nanming)
342095;Chengdu Tianfu International Airport;30.31252;104.441284;AS;CN;CN-51;Chengdu (Jianyang)
27230;Chengdu Shuangliu International Airport;30.558257;103.945966;AS;CN;CN-51;Chengdu (Shuangliu)
27236;Ürümqi Diwopu International Airport;43.90710068;87.47419739;AS;CN;CN-65;Ürümqi
27237;Changchun Longjia International Airport;43.996201;125.684998;AS;CN;CN-22;Changchun
27238;Harbin Taiping International Airport;45.623402;126.25;AS;CN;CN-23;Harbin
27242;Dalian Zhoushuizi International Airport;38.965698;121.539001;AS;CN;CN-21;Ganjingzi, Dalian
27243;Shenyang Taoxian International Airport;41.639801;123.483002;AS;CN;CN-21;Hunnan, Shenyang
